IRIDIUM 156             
1 43576U 18061H   26169.16396603  .00000210  00000+0  67875-4 0  9998
2 43576  86.3960  56.3211 0002068  82.8244 277.3187 14.34215588413511
IRIDIUM 164             
1 43577U 18061J   26169.70308360  .00000252  00000+0  82762-4 0  9990
2 43577  86.3959  56.1360 0002156  89.4861 270.6582 14.34217784413637
IRIDIUM 159             
1 43578U 18061K   26169.60160325  .00000039  00000+0  68093-5 0  9992
2 43578  86.3959  56.1152 0002274  83.7520 276.3935 14.34217629413584
IRIDIUM 180             
1 43922U 19002A   26169.60109831  .00000152  00000+0  47348-4 0  9991
2 43922  86.3971 353.0062 0002257  89.2124 270.9330 14.34217568389192
IRIDIUM 176             
1 43923U 19002B   26169.51827463  .00000597  00000+0  90779-4 0  9999
2 43923  86.6091 352.9842 0002309  93.0519 267.0962 14.72268563399442
IRIDIUM 168             
1 43924U 19002C   26169.52498376  .00000130  00000+0  39520-4 0  9998
2 43924  86.3974 353.1155 0002193  89.7901 270.3546 14.34219338389165
IRIDIUM 173             
1 43925U 19002D   26169.44253402  .00000151  00000+0  46969-4 0  9997
2 43925  86.3968 353.0388 0002181  87.2268 272.9177 14.34217141389137
IRIDIUM 169             
1 43926U 19002E   26169.64335837  .00000213  00000+0  63236-4 0  9998
2 43926  86.4223  24.5845 0001805  73.6474 286.4922 14.38609598390439
IRIDIUM 172             
1 43927U 19002F   26169.50595687  .00000159  00000+0  49824-4 0  9991
2 43927  86.3970 353.0202 0002257  88.5995 271.5459 14.34219037389158
IRIDIUM 175             
1 43928U 19002G   26169.59282637  .00000267  00000+0  72832-4 0  9994
2 43928  86.4514 289.9332 0002685 174.8560 185.2669 14.43613386399180
IRIDIUM 171             
1 43929U 19002H   26169.69623737 -.00000038  00000+0 -20774-4 0  9992
2 43929  86.3975 353.2469 0001944  91.4378 268.7041 14.34217310389171
IRIDIUM 170             
1 43930U 19002J   26169.04868592  .00000610  00000+0  92773-4 0  9995
2 43930  86.6091 353.1830 0002356  89.3305 270.8182 14.72268543399380
IRIDIUM 167             
1 43931U 19002K   26169.48058880  .00000012  00000+0 -26088-5 0  9999
2 43931  86.3966 353.0532 0001779  92.7104 267.4296 14.34217549389149
IRIDIUM 181             
1 56726U 23068S   26169.70102728  .00000256  00000+0  69926-4 0  9994
2 56726  86.4500  56.1585 0002577  88.3874 271.7622 14.43310294162658
IRIDIUM 177             
1 56727U 23068T   26169.40420700  .00000506  00000+0  63133-4 0  9997
2 56727  86.1965 328.2134 0002355  88.5696 271.5795 14.80226116166543
IRIDIUM 174             
1 56728U 23068U   26169.51212128  .00000614  00000+0  93432-4 0  9998
2 56728  86.6098 353.1367 0002452  84.2305 275.9192 14.72265443166219
IRIDIUM 178             
1 56729U 23068V   26169.66374038  .00000760  00000+0  96556-4 0  9996
2 56729  86.6536  24.7430 0002621  85.6256 274.5265 14.80236020166581
IRIDIUM 179             
1 56730U 23068W   26169.11753128  .00000725  00000+0  91909-4 0  9997
2 56730  86.6774  33.9542 0002465  88.3996 271.7508 14.80232457166501
