OBJECT_NAME,OBJECT_ID,EPOCH,MEAN_MOTION,ECCENTRICITY,INCLINATION,RA_OF_ASC_NODE,ARG_OF_PERICENTER,MEAN_ANOMALY,EPHEMERIS_TYPE,CLASSIFICATION_TYPE,NORAD_CAT_ID,ELEMENT_SET_NO,REV_AT_EPOCH,BSTAR,MEAN_MOTION_DOT,MEAN_MOTION_DDOT
IRIDIUM 156,2018-061H,2026-06-18T03:56:06.664992,14.34215588,.0002068,86.3960,56.3211,82.8244,277.3187,0,U,43576,999,41351,.67875E-4,.21E-5,0
IRIDIUM 164,2018-061J,2026-06-18T16:52:26.423040,14.34217784,.0002156,86.3959,56.1360,89.4861,270.6582,0,U,43577,999,41363,.82762E-4,.252E-5,0
IRIDIUM 159,2018-061K,2026-06-18T14:26:18.520800,14.34217629,.0002274,86.3959,56.1152,83.7520,276.3935,0,U,43578,999,41358,.68093E-5,.39E-6,0
IRIDIUM 180,2019-002A,2026-06-18T14:25:34.893984,14.34217568,.0002257,86.3971,353.0062,89.2124,270.9330,0,U,43922,999,38919,.47348E-4,.152E-5,0
IRIDIUM 176,2019-002B,2026-06-18T12:26:18.928032,14.72268563,.0002309,86.6091,352.9842,93.0519,267.0962,0,U,43923,999,39944,.90779E-4,.597E-5,0
IRIDIUM 168,2019-002C,2026-06-18T12:35:58.596864,14.34219338,.0002193,86.3974,353.1155,89.7901,270.3546,0,U,43924,999,38916,.3952E-4,.13E-5,0
IRIDIUM 173,2019-002D,2026-06-18T10:37:14.939328,14.34217141,.0002181,86.3968,353.0388,87.2268,272.9177,0,U,43925,999,38913,.46969E-4,.151E-5,0
IRIDIUM 169,2019-002E,2026-06-18T15:26:26.163168,14.38609598,.0001805,86.4223,24.5845,73.6474,286.4922,0,U,43926,999,39043,.63236E-4,.213E-5,0
IRIDIUM 172,2019-002F,2026-06-18T12:08:34.673568,14.34219037,.0002257,86.3970,353.0202,88.5995,271.5459,0,U,43927,999,38915,.49824E-4,.159E-5,0
IRIDIUM 175,2019-002G,2026-06-18T14:13:40.198368,14.43613386,.0002685,86.4514,289.9332,174.8560,185.2669,0,U,43928,999,39918,.72832E-4,.267E-5,0
IRIDIUM 171,2019-002H,2026-06-18T16:42:34.908768,14.34217310,.0001944,86.3975,353.2469,91.4378,268.7041,0,U,43929,999,38917,-.20774E-4,-.38E-6,0
IRIDIUM 170,2019-002J,2026-06-18T01:10:06.463488,14.72268543,.00023566,86.6091,353.1830,89.3305,270.8182,0,U,43930,999,39938,.92772602E-4,.61E-5,0
IRIDIUM 167,2019-002K,2026-06-18T11:32:02.872320,14.34217549,.0001779,86.3966,353.0532,92.7104,267.4296,0,U,43931,999,38914,-.26088E-5,.12E-6,0
IRIDIUM 181,2023-068S,2026-06-18T16:49:28.756992,14.43310294,.0002577,86.4500,56.1585,88.3874,271.7622,0,U,56726,999,16265,.69926E-4,.256E-5,0
IRIDIUM 177,2023-068T,2026-06-18T09:42:03.484800,14.80226116,.0002355,86.1965,328.2134,88.5696,271.5795,0,U,56727,999,16654,.63133E-4,.506E-5,0
IRIDIUM 174,2023-068U,2026-06-18T12:17:27.278592,14.72265443,.0002452,86.6098,353.1367,84.2305,275.9192,0,U,56728,999,16621,.93432E-4,.614E-5,0
IRIDIUM 178,2023-068V,2026-06-18T15:55:47.168832,14.80236020,.0002621,86.6536,24.7430,85.6256,274.5265,0,U,56729,999,16658,.96556E-4,.76E-5,0
IRIDIUM 179,2023-068W,2026-06-18T02:49:14.702592,14.80232457,.0002465,86.6774,33.9542,88.3996,271.7508,0,U,56730,999,16650,.91909E-4,.725E-5,0
